NORAD_CAT_ID,OBJECT_NAME,OBJECT_TYPE,EPOCH,MEAN_MOTION,ECCENTRICITY,INCLINATION,RA_OF_ASC_NODE,ARG_OF_PERICENTER,MEAN_ANOMALY,BSTAR,MEAN_MOTION_DOT,MEAN_MOTION_DDOT,TLE_LINE0,TLE_LINE1,TLE_LINE2,SEMIMAJOR_AXIS,PERIOD,APOGEE,PERIGEE,DECAYED
55287.0,STARLINK-5341,PAYLOAD,2024-02-13 21:23:24,14.98333671,0.0002866,70.0,107.772,270.6705,89.4126,-2.8675e-05,-4.35e-06,0.0,0 STARLINK-5341,1 55287U 23010U   24044.89126119 -.00000435  00000-0 -28675-4 0  9990,2 55287  70.0000 107.7720 0002866 270.6705  89.4126 14.98333671 60695,6950.182,96.107,574.038,570.055,0.0
55287.0,STARLINK-5341,PAYLOAD,2024-02-14 11:48:37,14.98336679,0.0002804,70.0009,106.2572,267.4035,92.6803,0.00014617,1.652e-05,0.0,0 STARLINK-5341,1 55287U 23010U   24045.49209615  .00001652  00000-0  14617-3 0  9990,2 55287  70.0009 106.2572 0002804 267.4035  92.6803 14.98336679 60470,6950.172,96.107,573.986,570.088,0.0
55287.0,STARLINK-5341,PAYLOAD,2024-02-14 13:24:45,14.98337589,0.0002788,70.0009,106.0889,267.8849,92.1991,0.00016997,1.936e-05,0.0,0 STARLINK-5341,1 55287U 23010U   24045.55885588  .00001936  00000-0  16997-3 0  9994,2 55287  70.0009 106.0889 0002788 267.8849  92.1991 14.98337589 60796,6950.169,96.107,573.972,570.097,0.0
55287.0,STARLINK-5341,PAYLOAD,2024-02-14 21:25:25,14.98331018,0.0002746,70.001,105.2473,269.1403,90.9442,1.7323e-05,1.14e-06,0.0,0 STARLINK-5341,1 55287U 23010U   24045.89265961  .00000114  00000-0  17323-4 0  9990,2 55287  70.0010 105.2473 0002746 269.1403  90.9442 14.98331018 60847,6950.19,96.107,573.963,570.146,0.0
55287.0,STARLINK-5341,PAYLOAD,2024-02-15 11:50:38,14.98324138,0.0002696,69.9999,103.7314,264.3795,95.7056,0.00013491,1.517e-05,0.0,0 STARLINK-5341,1 55287U 23010U   24046.49350533  .00001517  00000-0  13491-3 0  9996,2 55287  69.9999 103.7314 0002696 264.3795  95.7056 14.98324138 60627,6950.211,96.107,573.95,570.202,0.0
55287.0,STARLINK-5341,PAYLOAD,2024-02-15 13:26:46,14.98326,0.0002675,70.0,103.5635,264.991,95.0944,0.00015367,1.741e-05,0.0,0 STARLINK-5341,1 55287U 23010U   24046.56026405  .00001741  00000-0  15367-3 0  9995,2 55287  70.0000 103.5635 0002675 264.9910  95.0944 14.98326000 60943,6950.205,96.107,573.929,570.211,0.0
55287.0,STARLINK-5341,PAYLOAD,2024-02-16 03:51:58,14.98332675,0.0002872,70.0,102.0486,267.2877,92.7953,0.00017516,1.998e-05,0.0,0 STARLINK-5341,1 55287U 23010U   24047.16109905  .00001998  00000-0  17516-3 0  9991,2 55287  70.0000 102.0486 0002872 267.2877  92.7953 14.98332675 60723,6950.185,96.107,574.046,570.054,0.0
55287.0,STARLINK-5341,PAYLOAD,2024-02-16 13:28:47,14.98338241,0.0002726,69.9999,101.039,267.499,92.5857,0.00011149,1.238e-05,0.0,0 STARLINK-5341,1 55287U 23010U   24047.56165512  .00001238  00000-0  11149-3 0  9994,2 55287  69.9999 101.0390 0002726 267.4990  92.5857 14.98338241 61093,6950.167,96.106,573.927,570.138,0.0
55287.0,STARLINK-5341,PAYLOAD,2024-02-17 03:54:00,14.98327351,0.0002808,70.0002,99.5235,267.6875,92.3963,9.6576e-05,1.059e-05,0.0,0 STARLINK-5341,1 55287U 23010U   24048.16250173  .00001059  00000-0  96576-4 0  9998,2 55287  70.0002  99.5235 0002808 267.6875  92.3963 14.98327351 60876,6950.201,96.107,574.018,570.114,0.0
55287.0,STARLINK-5341,PAYLOAD,2024-02-17 13:30:49,14.98317175,0.0002577,70.0,98.515,260.6122,99.4745,0.00021807,2.509e-05,0.0,0 STARLINK-5341,1 55287U 23010U   24048.56306724  .00002509  00000-0  21807-3 0  9991,2 55287  70.0000  98.5150 0002577 260.6122  99.4745 14.98317175 61241,6950.233,96.108,573.889,570.306,0.0
55287.0,STARLINK-5341,PAYLOAD,2024-02-17 19:55:20,14.98331032,0.0002722,70.0001,97.841,271.7934,88.2913,3.298e-05,3.01e-06,0.0,0 STARLINK-5341,1 55287U 23010U   24048.83010230  .00000301  00000-0  32980-4 0  9998,2 55287  70.0001  97.8410 0002722 271.7934  88.2913 14.98331032 61284,6950.19,96.107,573.947,570.163,0.0
55287.0,STARLINK-5341,PAYLOAD,2024-02-18 03:56:00,14.98334304,0.000295,69.9994,96.9992,271.7796,88.3025,3.3002e-05,3.01e-06,0.0,0 STARLINK-5341,1 55287U 23010U   24049.16389921  .00000301  00000-0  33002-4 0  9997,2 55287  69.9994  96.9992 0002950 271.7796  88.3025 14.98334304 61028,6950.18,96.107,574.095,569.994,0.0
55287.0,STARLINK-5341,PAYLOAD,2024-02-18 11:56:40,14.98358266,0.0002444,69.9996,96.1578,268.6392,91.4487,-0.00030261,-3.704e-05,0.0,0 STARLINK-5341,1 55287U 23010U   24049.49768939 -.00003704  00000-0 -30261-3 0  9998,2 55287  69.9996  96.1578 0002444 268.6392  91.4487 14.98358266 61072,6950.105,96.105,573.669,570.272,0.0
55287.0,STARLINK-5341,PAYLOAD,2024-02-18 13:32:48,14.98339542,0.0002812,69.9995,95.9895,268.8354,91.2483,6.1416e-05,6.4e-06,0.0,0 STARLINK-5341,1 55287U 23010U   24049.56445356  .00000640  00000-0  61416-4 0  9992,2 55287  69.9995  95.9895 0002812 268.8354  91.2483 14.98339542 61394,6950.163,96.106,573.983,570.074,0.0
55287.0,STARLINK-5341,PAYLOAD,2024-02-18 19:57:21,14.98337085,0.0002801,69.9996,95.3159,270.6429,89.4409,-4.6367e-07,-9.9e-07,0.0,0 STARLINK-5341,1 55287U 23010U   24049.83149551 -.00000099  00000-0 -46367-6 0  9990,2 55287  69.9996  95.3159 0002801 270.6429  89.4409 14.98337085 61122,6950.171,96.107,573.983,570.089,0.0
55287.0,STARLINK-5341,PAYLOAD,2024-02-19 11:58:42,14.98329951,0.00028,69.9996,93.6328,271.557,88.5268,9.7058e-05,1.065e-05,0.0,0 STARLINK-5341,1 55287U 23010U   24050.49909824  .00001065  00000-0  97058-4 0  9994,2 55287  69.9996  93.6328 0002800 271.5570  88.5268 14.98329951 61224,6950.193,96.107,574.004,570.112,0.0
55287.0,STARLINK-5341,PAYLOAD,2024-02-19 13:34:50,14.98331085,0.00028,69.9996,93.4645,271.3392,88.7446,0.00010767,1.192e-05,0.0,0 STARLINK-5341,1 55287U 23010U   24050.56585731  .00001192  00000-0  10767-3 0  9991,2 55287  69.9996  93.4645 0002800 271.3392  88.7446 14.98331085 61540,6950.19,96.107,574.001,570.108,0.0
55287.0,STARLINK-5341,PAYLOAD,2024-02-19 19:59:22,14.98338724,0.0002801,69.9997,92.7907,270.4379,89.6459,-0.00019223,-2.386e-05,0.0,0 STARLINK-5341,1 55287U 23010U   24050.83289807 -.00002386  00000-0 -19223-3 0  9990,2 55287  69.9997  92.7907 0002801 270.4379  89.6459 14.98338724 61585,6950.166,96.106,573.978,570.084,0.0
55287.0,STARLINK-5341,PAYLOAD,2024-02-20 10:24:35,14.98328288,0.0002817,69.9996,91.2764,268.9902,91.0934,-1.506e-05,-2.73e-06,0.0,0 STARLINK-5341,1 55287U 23010U   24051.43374155 -.00000273  00000-0 -15060-4 0  9997,2 55287  69.9996  91.2764 0002817 268.9902  91.0934 14.98328288 61679,6950.198,96.107,574.021,570.105,0.0
55287.0,STARLINK-5341,PAYLOAD,2024-02-20 20:01:23,14.98322382,0.0002784,69.9992,90.2654,270.3919,89.6921,0.00017382,1.981e-05,0.0,0 STARLINK-5341,1 55287U 23010U   24051.83430140  .00001981  00000-0  17382-3 0  9991,2 55287  69.9992  90.2654 0002784 270.3919  89.6921 14.98322382 61735,6950.216,96.107,574.016,570.147,0.0
55287.0,STARLINK-5341,PAYLOAD,2024-02-21 04:02:03,14.98330077,0.0003015,69.9991,89.4237,270.1171,89.9643,6.8632e-05,7.26e-06,0.0,0 STARLINK-5341,1 55287U 23010U   24052.16809762  .00000726  00000-0  68632-4 0  9999,2 55287  69.9991  89.4237 0003015 270.1171  89.9643 14.98330077 61472,6950.193,96.107,574.153,569.962,0.0
55287.0,STARLINK-5341,PAYLOAD,2024-02-21 12:02:43,14.98333306,0.0002893,69.9994,88.5823,267.728,92.3548,8.497e-05,9.21e-06,0.0,0 STARLINK-5341,1 55287U 23010U   24052.50189493  .00000921  00000-0  84970-4 0  9999,2 55287  69.9994  88.5823 0002893 267.7280  92.3548 14.98333306 61832,6950.183,96.107,574.058,570.037,0.0
55287.0,STARLINK-5341,PAYLOAD,2024-02-21 20:03:24,14.98328589,0.0002654,70.0008,87.7404,270.7253,89.3602,7.0061e-05,7.43e-06,0.0,0 STARLINK-5341,1 55287U 23010U   24052.83569883  .00000743  00000-0  70061-4 0  9998,2 55287  70.0008  87.7404 0002654 270.7253  89.3602 14.98328589 61885,6950.197,96.107,573.907,570.218,0.0
55287.0,STARLINK-5341,PAYLOAD,2024-02-22 04:04:04,14.98326519,0.0002992,69.9997,86.899,269.3748,90.7068,7.7973e-05,8.37e-06,0.0,0 STARLINK-5341,1 55287U 23010U   24053.16949906  .00000837  00000-0  77973-4 0  9996,2 55287  69.9997  86.8990 0002992 269.3748  90.7068 14.98326519 61622,6950.204,96.107,574.148,569.989,0.0
55287.0,STARLINK-5341,PAYLOAD,2024-02-22 12:04:44,14.98329387,0.0002966,69.9994,86.057,268.2945,91.7874,6.5602e-05,6.9e-06,0.0,0 STARLINK-5341,1 55287U 23010U   24053.50329801  .00000690  00000-0  65602-4 0  9993,2 55287  69.9994  86.0570 0002966 268.2945  91.7874 14.98329387 61984,6950.195,96.107,574.121,569.998,0.0
55287.0,STARLINK-5341,PAYLOAD,2024-02-23 04:06:05,14.98331362,0.0002947,69.9994,84.3736,269.8611,90.221,1.5727e-05,9.5e-07,0.0,0 STARLINK-5341,1 55287U 23010U   24054.17089775  .00000095  00000-0  15727-4 0  9992,2 55287  69.9994  84.3736 0002947 269.8611  90.2210 14.98331362 61776,6950.189,96.107,574.102,570.005,0.0
55287.0,STARLINK-5341,PAYLOAD,2024-02-23 12:06:45,14.9833418,0.0002757,69.9993,83.5324,262.6113,97.4733,1.7844e-05,1.2e-06,0.0,0 STARLINK-5341,1 55287U 23010U   24054.50469524  .00000120  00000-0  17844-4 0  9994,2 55287  69.9993  83.5324 0002757 262.6113  97.4733 14.98334180 62137,6950.18,96.107,573.961,570.129,0.0
55287.0,STARLINK-5341,PAYLOAD,2024-02-23 18:31:17,14.98341392,0.0002953,69.9995,82.8593,270.1686,89.9135,-0.00016678,-2.083e-05,0.0,0 STARLINK-5341,1 55287U 23010U   24054.77173414 -.00002083  00000-0 -16678-3 0  9998,2 55287  69.9995  82.8593 0002953 270.1686  89.9135 14.98341392 62175,6950.158,96.106,574.075,569.97,0.0
55287.0,STARLINK-5341,PAYLOAD,2024-02-24 04:08:06,14.98330499,0.0002947,69.9993,81.849,269.3621,90.72,3.6848e-05,3.47e-06,0.0,0 STARLINK-5341,1 55287U 23010U   24055.17229703  .00000347  00000-0  36848-4 0  9997,2 55287  69.9993  81.8490 0002947 269.3621  90.7200 14.98330499 61921,6950.191,96.107,574.105,570.008,0.0
55287.0,STARLINK-5341,PAYLOAD,2024-02-24 10:32:38,14.98331855,0.0002909,69.9993,81.176,268.4204,91.6622,5.5137e-05,5.65e-06,0.0,0 STARLINK-5341,1 55287U 23010U   24055.43933592  .00000565  00000-0  55137-4 0  9998,2 55287  69.9993  81.1760 0002909 268.4204  91.6622 14.98331855 62273,6950.187,96.107,574.074,570.03,0.0
